{"type": "FeatureCollection", "features": [ {"type": "Feature", "properties": {"norad_id": 46443, "name": "FENGYUN 1C DEB", "group": "fengyun-1c-debris", "lat": 43.94841493807806, "lon": 36.41934354873672, "alt_km": 789.8118288719488, "timestamp": "2025-12-04T17:48:40.456419+00:00", "meta": {"OBJECT_NAME": "FENGYUN 1C DEB", "OBJECT_ID": "1999-025EYY", "EPOCH": "2025-12-03T09:32:35.378880", "MEAN_MOTION": 14.10749768, "ECCENTRICITY": 0.00968424, "INCLINATION": 99.2158, "RA_OF_ASC_NODE": 44.0446, "ARG_OF_PERICENTER": 22.6578, "MEAN_ANOMALY": 37.018, "EPHEMERIS_TYPE": 0, "CLASSIFICATION_TYPE": "U", "NORAD_CAT_ID": 46443, "ELEMENT_SET_NO": 999, "REV_AT_EPOCH": 59464, "BSTAR": 0.0021730082, "MEAN_MOTION_DOT": 4.016e-05, "MEAN_MOTION_DDOT": 0}, "tle": {"line1": "1 46443U 99025EYY 25337.39763170  .00004016  00000+0  21730-2 0  9997", "line2": "2 46443  99.2158  44.0446 0096842  22.6578  37.0180 14.10749768594642"}}, "geometry": {"type": "Point", "coordinates": [36.41934354873672, 43.94841493807806]}}, {"type": "Feature", "properties": {"norad_id": 46444, "name": "FENGYUN 1C DEB", "group": "fengyun-1c-debris", "lat": -23.841207340042722, "lon": -15.25642989317233, "alt_km": 863.8101330907311, "timestamp": "2025-12-04T17:48:40.456429+00:00", "meta": {"OBJECT_NAME": "FENGYUN 1C DEB", "OBJECT_ID": "1999-025EYZ", "EPOCH": "2025-11-29T06:45:16.022016", "MEAN_MOTION": 14.27103748, "ECCENTRICITY": 0.00836434, "INCLINATION": 98.5135, "RA_OF_ASC_NODE": 335.6326, "ARG_OF_PERICENTER": 190.2717, "MEAN_ANOMALY": 186.5379, "EPHEMERIS_TYPE": 0, "CLASSIFICATION_TYPE": "U", "NORAD_CAT_ID": 46444, "ELEMENT_SET_NO": 999, "REV_AT_EPOCH": 62390, "BSTAR": 0.00050592492, "MEAN_MOTION_DOT": 1.237e-05, "MEAN_MOTION_DDOT": 0}, "tle": {"line1": "1 46444U 99025EYZ 25333.28143544  .00001237  00000+0  50592-3 0  9990", "line2": "2 46444  98.5135 335.6326 0083643 190.2717 186.5379 14.27103748623900"}}, "geometry": {"type": "Point", "coordinates": [-15.25642989317233, -23.841207340042722]}}, {"type": "Feature", "properties": {"norad_id": 46449, "name": "FENGYUN 1C DEB", "group": "fengyun-1c-debris", "lat": 4.730917303942711, "lon": 12.596769142450464, "alt_km": 780.1396822280794, "timestamp": "2025-12-04T17:48:40.456439+00:00", "meta": {"OBJECT_NAME": "FENGYUN 1C DEB", "OBJECT_ID": "1999-025EZE", "EPOCH": "2025-11-27T19:57:02.428704", "MEAN_MOTION": 14.19021773, "ECCENTRICITY": 0.02029501, "INCLINATION": 98.6463, "RA_OF_ASC_NODE": 6.5721, "ARG_OF_PERICENTER": 314.0231, "MEAN_ANOMALY": 44.4375, "EPHEMERIS_TYPE": 0, "CLASSIFICATION_TYPE": "U", "NORAD_CAT_ID": 46449, "ELEMENT_SET_NO": 999, "REV_AT_EPOCH": 57425, "BSTAR": 0.00050383916, "MEAN_MOTION_DOT": 1.244e-05, "MEAN_MOTION_DDOT": 0}, "tle": {"line1": "1 46449U 99025EZE 25331.83127811  .00001244  00000+0  50384-3 0  9990", "line2": "2 46449  98.6463   6.5721 0202950 314.0231  44.4375 14.19021773574253"}}, "geometry": {"type": "Point", "coordinates": [12.596769142450464, 4.730917303942711]}}, {"type": "Feature", "properties": {"norad_id": 46450, "name": "FENGYUN 1C DEB", "group": "fengyun-1c-debris", "lat": -68.51455328170138, "lon": -4.881956621733828, "alt_km": 1017.2954047834137, "timestamp": "2025-12-04T17:48:40.456449+00:00", "meta": {"OBJECT_NAME": "FENGYUN 1C DEB", "OBJECT_ID": "1999-025EZF", "EPOCH": "2025-12-01T01:22:23.335392", "MEAN_MOTION": 14.03437958, "ECCENTRICITY": 0.01820591, "INCLINATION": 98.0807, "RA_OF_ASC_NODE": 192.9977, "ARG_OF_PERICENTER": 94.2765, "MEAN_ANOMALY": 267.9231, "EPHEMERIS_TYPE": 0, "CLASSIFICATION_TYPE": "U", "NORAD_CAT_ID": 46450, "ELEMENT_SET_NO": 999, "REV_AT_EPOCH": 60955, "BSTAR": 0.0021892778, "MEAN_MOTION_DOT": 3.934e-05, "MEAN_MOTION_DDOT": 0}, "tle": {"line1": "1 46450U 99025EZF 25335.05721453  .00003934  00000+0  21893-2 0  9992", "line2": "2 46450  98.0807 192.9977 0182059  94.2765 267.9231 14.03437958609554"}}, "geometry": {"type": "Point", "coordinates": [-4.881956621733828, -68.51455328170138]}}, {"type": "Feature", "properties": {"norad_id": 46451, "name": "FENGYUN 1C DEB", "group": "fengyun-1c-debris", "lat": 80.4657675862387, "lon": -122.82238911957954, "alt_km": 866.3207427207599, "timestamp": "2025-12-04T17:48:40.456459+00:00", "meta": {"OBJECT_NAME": "FENGYUN 1C DEB", "OBJECT_ID": "1999-025EZG", "EPOCH": "2025-12-03T13:20:16.132128", "MEAN_MOTION": 14.20193894, "ECCENTRICITY": 0.01714686, "INCLINATION": 98.154, "RA_OF_ASC_NODE": 357.4737, "ARG_OF_PERICENTER": 212.7423, "MEAN_ANOMALY": 301.7581, "EPHEMERIS_TYPE": 0, "CLASSIFICATION_TYPE": "U", "NORAD_CAT_ID": 46451, "ELEMENT_SET_NO": 999, "REV_AT_EPOCH": 56876, "BSTAR": 0.0037099233, "MEAN_MOTION_DOT": 9.15e-05, "MEAN_MOTION_DDOT": 0}, "tle": {"line1": "1 46451U 99025EZG 25337.55574227  .00009150  00000+0  37099-2 0  9996", "line2": "2 46451  98.1540 357.4737 0171468 212.7423 301.7581 14.20193894568761"}}, "geometry": {"type": "Point", "coordinates": [-122.82238911957954, 80.4657675862387]}}, {"type": "Feature", "properties": {"norad_id": 46468, "name": "FENGYUN 1C DEB", "group": "fengyun-1c-debris", "lat": -29.235130046420068, "lon": -118.59273758479357, "alt_km": 792.2027577719664, "timestamp": "2025-12-04T17:48:40.456470+00:00", "meta": {"OBJECT_NAME": "FENGYUN 1C DEB", "OBJECT_ID": "1999-025EZK", "EPOCH": "2025-12-01T04:40:55.312032", "MEAN_MOTION": 14.24559314, "ECCENTRICITY": 0.0045013, "INCLINATION": 98.8851, "RA_OF_ASC_NODE": 62.8429, "ARG_OF_PERICENTER": 263.3595, "MEAN_ANOMALY": 125.7924, "EPHEMERIS_TYPE": 0, "CLASSIFICATION_TYPE": "U", "NORAD_CAT_ID": 46468, "ELEMENT_SET_NO": 999, "REV_AT_EPOCH": 73652, "BSTAR": 0.0020801, "MEAN_MOTION_DOT": 4.835e-05, "MEAN_MOTION_DDOT": 0}, "tle": {"line1": "1 46468U 99025EZK 25335.19508463  .00004835  00000+0  20801-2 0  9999", "line2": "2 46468  98.8851  62.8429 0045013 263.3595 125.7924 14.24559314736527"}}, "geometry": {"type": "Point", "coordinates": [-118.59273758479357, -29.235130046420068]}}, {"type": "Feature", "properties": {"norad_id": 46986, "name": "FENGYUN 1C DEB", "group": "fengyun-1c-debris", "lat": 76.18449289908531, "lon": -141.22017735475376, "alt_km": 780.1906512325222, "timestamp": "2025-12-04T17:48:40.456480+00:00", "meta": {"OBJECT_NAME": "FENGYUN 1C DEB", "OBJECT_ID": "1999-025EZL", "EPOCH": "2025-12-01T08:01:27.390720", "MEAN_MOTION": 14.47112781, "ECCENTRICITY": 0.01038428, "INCLINATION": 98.2357, "RA_OF_ASC_NODE": 359.3803, "ARG_OF_PERICENTER": 247.048, "MEAN_ANOMALY": 111.973, "EPHEMERIS_TYPE": 0, "CLASSIFICATION_TYPE": "U", "NORAD_CAT_ID": 46986, "ELEMENT_SET_NO": 999, "REV_AT_EPOCH": 63235, "BSTAR": 0.00048896767, "MEAN_MOTION_DOT": 1.859e-05, "MEAN_MOTION_DDOT": 0}, "tle": {"line1": "1 46986U 99025EZL 25335.33434480  .00001859  00000+0  48897-3 0  9996", "line2": "2 46986  98.2357 359.3803 0103842 247.0480 111.9730 14.47112781632350"}}, "geometry": {"type": "Point", "coordinates": [-141.22017735475376, 76.18449289908531]}}, {"type": "Feature", "properties": {"norad_id": 46989, "name": "FENGYUN 1C DEB", "group": "fengyun-1c-debris", "lat": -18.581536039109828, "lon": 143.7089594905262, "alt_km": 804.8494490464191, "timestamp": "2025-12-04T17:48:40.456490+00:00", "meta": {"OBJECT_NAME": "FENGYUN 1C DEB", "OBJECT_ID": "1999-025EZP", "EPOCH": "2025-12-01T09:56:49.877952", "MEAN_MOTION": 13.7915922, "ECCENTRICITY": 0.02374727, "INCLINATION": 99.5096, "RA_OF_ASC_NODE": 137.1371, "ARG_OF_PERICENTER": 7.3744, "MEAN_ANOMALY": 21.4435, "EPHEMERIS_TYPE": 0, "CLASSIFICATION_TYPE": "U", "NORAD_CAT_ID": 46989, "ELEMENT_SET_NO": 999, "REV_AT_EPOCH": 70886, "BSTAR": 0.0040160764, "MEAN_MOTION_DOT": 5.034e-05, "MEAN_MOTION_DDOT": 0}, "tle": {"line1": "1 46989U 99025EZP 25335.41446618  .00005034  00000+0  40161-2 0  9998", "line2": "2 46989  99.5096 137.1371 0237472   7.3744  21.4435 13.79159220708866"}}, "geometry": {"type": "Point", "coordinates": [143.7089594905262, -18.581536039109828]}}, {"type": "Feature", "properties": {"norad_id": 46990, "name": "FENGYUN 1C DEB", "group": "fengyun-1c-debris", "lat": -81.74274599633495, "lon": -90.77060233871353, "alt_km": 1076.6515240240342, "timestamp": "2025-12-04T17:48:40.456500+00:00", "meta": {"OBJECT_NAME": "FENGYUN 1C DEB", "OBJECT_ID": "1999-025EZQ", "EPOCH": "2025-11-26T08:35:57.996096", "MEAN_MOTION": 14.23382053, "ECCENTRICITY": 0.0358932, "INCLINATION": 98.231, "RA_OF_ASC_NODE": 175.4855, "ARG_OF_PERICENTER": 108.636, "MEAN_ANOMALY": 64.2057, "EPHEMERIS_TYPE": 0, "CLASSIFICATION_TYPE": "U", "NORAD_CAT_ID": 46990, "ELEMENT_SET_NO": 999, "REV_AT_EPOCH": 8296, "BSTAR": 0.0024312042, "MEAN_MOTION_DOT": 0.0001074, "MEAN_MOTION_DDOT": 0}, "tle": {"line1": "1 46990U 99025EZQ 25330.35831014  .00010740  00000+0  24312-2 0  9996", "line2": "2 46990  98.2310 175.4855 0358932 108.6360  64.2057 14.23382053 82962"}}, "geometry": {"type": "Point", "coordinates": [-90.77060233871353, -81.74274599633495]}}, {"type": "Feature", "properties": {"norad_id": 46992, "name": "FENGYUN 1C DEB", "group": "fengyun-1c-debris", "lat": -77.49213550605377, "lon": 10.617401507448317, "alt_km": 903.8946344916512, "timestamp": "2025-12-04T17:48:40.456510+00:00", "meta": {"OBJECT_NAME": "FENGYUN 1C DEB", "OBJECT_ID": "1999-025EZS", "EPOCH": "2025-11-30T16:28:49.931328", "MEAN_MOTION": 14.00675889, "ECCENTRICITY": 0.00717654, "INCLINATION": 98.8954, "RA_OF_ASC_NODE": 321.762, "ARG_OF_PERICENTER": 194.0114, "MEAN_ANOMALY": 165.9062, "EPHEMERIS_TYPE": 0, "CLASSIFICATION_TYPE": "U", "NORAD_CAT_ID": 46992, "ELEMENT_SET_NO": 999, "REV_AT_EPOCH": 60788, "BSTAR": 0.00049604417, "MEAN_MOTION_DOT": 7.12e-06, "MEAN_MOTION_DDOT": 0}, "tle": {"line1": "1 46992U 99025EZS 25334.68668902  .00000712  00000+0  49604-3 0  9992", "line2": "2 46992  98.8954 321.7620 0071765 194.0114 165.9062 14.00675889607888"}}, "geometry": {"type": "Point", "coordinates": [10.617401507448317, -77.49213550605377]}}]}